[{"OBJECT_NAME":"STARLINK-30890","OBJECT_ID":"2023-177M","EPOCH":"2026-03-09T22:00:01.999584","MEAN_MOTION":15.26752313,"ECCENTRICITY":0.00016746,"INCLINATION":43.0009,"RA_OF_ASC_NODE":348.99,"ARG_OF_PERICENTER":270.7149,"MEAN_ANOMALY":175.7268,"EPHEMERIS_TYPE":0,"CLASSIFICATION_TYPE":"U","NORAD_CAT_ID":58362,"ELEMENT_SET_NO":999,"REV_AT_EPOCH":578,"BSTAR":-0.00045564541,"MEAN_MOTION_DOT":-0.00012466,"MEAN_MOTION_DDOT":0},{"OBJECT_NAME":"EDISON-1","OBJECT_ID":"2025-009B","EPOCH":"2026-03-09T19:16:13.822464","MEAN_MOTION":15.29042904,"ECCENTRICITY":0.00043285,"INCLINATION":97.4042,"RA_OF_ASC_NODE":151.6286,"ARG_OF_PERICENTER":306.4185,"MEAN_ANOMALY":53.6655,"EPHEMERIS_TYPE":0,"CLASSIFICATION_TYPE":"U","NORAD_CAT_ID":62610,"ELEMENT_SET_NO":999,"REV_AT_EPOCH":6375,"BSTAR":0.00052814963,"MEAN_MOTION_DOT":0.00014835,"MEAN_MOTION_DDOT":0}]
